{"features":[{"geometry":{"coordinates":[52.8000223,43.3003919],"type":"Point"},"id":"1159142671","properties":{"canonical_name":"Zhangaozen","feature_id":"1159142671","name_ru":"Жанаозен"},"type":"Feature"},{"geometry":{"coordinates":[51.2365002,43.6231887],"type":"Point"},"id":"1159148679","properties":{"canonical_name":"Aqtau","feature_id":"1159148679","name_ru":"Актау"},"type":"Feature"},{"geometry":{"coordinates":[51.9200244,47.1126915],"type":"Point"},"id":"1159150111","properties":{"canonical_name":"Atyrau","feature_id":"1159150111","name_ru":"Атырау"},"type":"Feature"},{"geometry":{"coordinates":[71.4277742,51.1811253],"type":"Point"},"id":"1159150965","properties":{"canonical_name":"Nur-Sultan","feature_id":"1159150965","name_ru":"Астана"},"type":"Feature"},{"geometry":{"coordinates":[76.9130903,43.3269357],"type":"Point"},"id":"1159150969","properties":{"canonical_name":"Almaty","feature_id":"1159150969","name_ru":"Алматы"},"type":"Feature"}],"type":"FeatureCollection"}